[{"OBJECT_NAME":"STARLINK-33716","OBJECT_ID":"2025-070AC","EPOCH":"2025-09-27T21:51:58.467168","MEAN_MOTION":15.27603013,"ECCENTRICITY":0.00018102,"INCLINATION":43.0037,"RA_OF_ASC_NODE":98.9015,"ARG_OF_PERICENTER":277.2262,"MEAN_ANOMALY":82.8384,"EPHEMERIS_TYPE":0,"CLASSIFICATION_TYPE":"U","NORAD_CAT_ID":63486,"ELEMENT_SET_NO":999,"REV_AT_EPOCH":2808,"BSTAR":0.001577182,"MEAN_MOTION_DOT":0.00043425,"MEAN_MOTION_DDOT":0},{"OBJECT_NAME":"STARLINK-33754","OBJECT_ID":"2025-070AD","EPOCH":"2025-09-27T22:21:35.284896","MEAN_MOTION":15.27580707,"ECCENTRICITY":0.00014741,"INCLINATION":43.0003,"RA_OF_ASC_NODE":99.0398,"ARG_OF_PERICENTER":291.4977,"MEAN_ANOMALY":68.5717,"EPHEMERIS_TYPE":0,"CLASSIFICATION_TYPE":"U","NORAD_CAT_ID":63487,"ELEMENT_SET_NO":999,"REV_AT_EPOCH":2808,"BSTAR":0.0014276252,"MEAN_MOTION_DOT":0.00039233,"MEAN_MOTION_DDOT":0},{"OBJECT_NAME":"STARLINK-33828","OBJECT_ID":"2025-071A","EPOCH":"2025-09-27T22:50:33.339264","MEAN_MOTION":15.30226746,"ECCENTRICITY":0.00011136,"INCLINATION":53.1587,"RA_OF_ASC_NODE":177.9914,"ARG_OF_PERICENTER":112.1428,"MEAN_ANOMALY":247.9691,"EPHEMERIS_TYPE":0,"CLASSIFICATION_TYPE":"U","NORAD_CAT_ID":63493,"ELEMENT_SET_NO":999,"REV_AT_EPOCH":2780,"BSTAR":0.0012478056,"MEAN_MOTION_DOT":0.00036811,"MEAN_MOTION_DDOT":0},{"OBJECT_NAME":"STARLINK-33819","OBJECT_ID":"2025-071B","EPOCH":"2025-09-28T00:29:10.038912","MEAN_MOTION":15.30209097,"ECCENTRICITY":9.697e-5,"INCLINATION":53.1584,"RA_OF_ASC_NODE":177.7003,"ARG_OF_PERICENTER":44.6622,"MEAN_ANOMALY":315.4457,"EPHEMERIS_TYPE":0,"CLASSIFICATION_TYPE":"U","NORAD_CAT_ID":63494,"ELEMENT_SET_NO":999,"REV_AT_EPOCH":2781,"BSTAR":0.0016538209,"MEAN_MOTION_DOT":0.00048959,"MEAN_MOTION_DDOT":0},{"OBJECT_NAME":"STARLINK-33845","OBJECT_ID":"2025-071C","EPOCH":"2025-09-28T00:01:03.425376","MEAN_MOTION":15.30204395,"ECCENTRICITY":0.00012812,"INCLINATION":53.1589,"RA_OF_ASC_NODE":175.4474,"ARG_OF_PERICENTER":65.1751,"MEAN_ANOMALY":294.9383,"EPHEMERIS_TYPE":0,"CLASSIFICATION_TYPE":"U","NORAD_CAT_ID":63495,"ELEMENT_SET_NO":999,"REV_AT_EPOCH":2784,"BSTAR":0.0022536735,"MEAN_MOTION_DOT":0.00067001,"MEAN_MOTION_DDOT":0},{"OBJECT_NAME":"STARLINK-33829","OBJECT_ID":"2025-071D","EPOCH":"2025-09-27T22:49:47.411616","MEAN_MOTION":15.3022463,"ECCENTRICITY":5.632e-5,"INCLINATION":53.1577,"RA_OF_ASC_NODE":175.8494,"ARG_OF_PERICENTER":63.89,"MEAN_ANOMALY":296.2158,"EPHEMERIS_TYPE":0,"CLASSIFICATION_TYPE":"U","NORAD_CAT_ID":63496,"ELEMENT_SET_NO":999,"REV_AT_EPOCH":2779,"BSTAR":0.0013601104,"MEAN_MOTION_DOT":0.00040172,"MEAN_MOTION_DDOT":0},{"OBJECT_NAME":"STARLINK-33815","OBJECT_ID":"2025-071E","EPOCH":"2025-09-27T21:41:34.519200","MEAN_MOTION":15.30186624,"ECCENTRICITY":8.275e-5,"INCLINATION":53.1572,"RA_OF_ASC_NODE":176.2649,"ARG_OF_PERICENTER":85.9732,"MEAN_ANOMALY":274.1363,"EPHEMERIS_TYPE":0,"CLASSIFICATION_TYPE":"U","NORAD_CAT_ID":63497,"ELEMENT_SET_NO":999,"REV_AT_EPOCH":2784,"BSTAR":0.0011989246,"MEAN_MOTION_DOT":0.00035304,"MEAN_MOTION_DDOT":0},{"OBJECT_NAME":"STARLINK-33833","OBJECT_ID":"2025-071F","EPOCH":"2025-09-28T00:37:31.371456","MEAN_MOTION":15.30196483,"ECCENTRICITY":0.00010055,"INCLINATION":53.1573,"RA_OF_ASC_NODE":175.601,"ARG_OF_PERICENTER":82.0142,"MEAN_ANOMALY":278.0973,"EPHEMERIS_TYPE":0,"CLASSIFICATION_TYPE":"U","NORAD_CAT_ID":63498,"ELEMENT_SET_NO":999,"REV_AT_EPOCH":2786,"BSTAR":0.0012468279,"MEAN_MOTION_DOT":0.00036747,"MEAN_MOTION_DDOT":0},{"OBJECT_NAME":"STARLINK-33534","OBJECT_ID":"2025-071G","EPOCH":"2025-09-28T00:31:25.343904","MEAN_MOTION":15.30127228,"ECCENTRICITY":0.00013627,"INCLINATION":53.1573,"RA_OF_ASC_NODE":175.5758,"ARG_OF_PERICENTER":27.6303,"MEAN_ANOMALY":332.477,"EPHEMERIS_TYPE":0,"CLASSIFICATION_TYPE":"U","NORAD_CAT_ID":63499,"ELEMENT_SET_NO":999,"REV_AT_EPOCH":2784,"BSTAR":0.0016505542,"MEAN_MOTION_DOT":0.00048736,"MEAN_MOTION_DDOT":0},{"OBJECT_NAME":"STARLINK-33838","OBJECT_ID":"2025-071H","EPOCH":"2025-09-28T00:07:07.750848","MEAN_MOTION":15.30209401,"ECCENTRICITY":5.162e-5,"INCLINATION":53.1587,"RA_OF_ASC_NODE":175.4707,"ARG_OF_PERICENTER":57.5334,"MEAN_ANOMALY":302.5717,"EPHEMERIS_TYPE":0,"CLASSIFICATION_TYPE":"U","NORAD_CAT_ID":63500,"ELEMENT_SET_NO":999,"REV_AT_EPOCH":2765,"BSTAR":0.0014543728,"MEAN_MOTION_DOT":0.00042977,"MEAN_MOTION_DDOT":0},{"OBJECT_NAME":"STARLINK-33837","OBJECT_ID":"2025-071J","EPOCH":"2025-09-27T23:24:44.489952","MEAN_MOTION":15.3018761,"ECCENTRICITY":6.102e-5,"INCLINATION":53.157,"RA_OF_ASC_NODE":176.0007,"ARG_OF_PERICENTER":145.2065,"MEAN_ANOMALY":214.8976,"EPHEMERIS_TYPE":0,"CLASSIFICATION_TYPE":"U","NORAD_CAT_ID":63501,"ELEMENT_SET_NO":999,"REV_AT_EPOCH":2779,"BSTAR":0.0020893101,"MEAN_MOTION_DOT":0.00062014,"MEAN_MOTION_DDOT":0},{"OBJECT_NAME":"STARLINK-33818","OBJECT_ID":"2025-071K","EPOCH":"2025-09-28T00:02:34.135008","MEAN_MOTION":15.30209289,"ECCENTRICITY":0.00010642,"INCLINATION":53.159,"RA_OF_ASC_NODE":175.4512,"ARG_OF_PERICENTER":21.1246,"MEAN_ANOMALY":338.9798,"EPHEMERIS_TYPE":0,"CLASSIFICATION_TYPE":"U","NORAD_CAT_ID":63502,"ELEMENT_SET_NO":999,"REV_AT_EPOCH":2786,"BSTAR":0.0015151277,"MEAN_MOTION_DOT":0.00044798,"MEAN_MOTION_DDOT":0},{"OBJECT_NAME":"STARLINK-33583","OBJECT_ID":"2025-071L","EPOCH":"2025-09-28T01:34:30.484704","MEAN_MOTION":15.30197839,"ECCENTRICITY":0.0001083,"INCLINATION":53.1603,"RA_OF_ASC_NODE":177.978,"ARG_OF_PERICENTER":63.2939,"MEAN_ANOMALY":296.8173,"EPHEMERIS_TYPE":0,"CLASSIFICATION_TYPE":"U","NORAD_CAT_ID":63503,"ELEMENT_SET_NO":999,"REV_AT_EPOCH":2784,"BSTAR":0.0013660189,"MEAN_MOTION_DOT":0.00040315,"MEAN_MOTION_DDOT":0},{"OBJECT_NAME":"STARLINK-33811","OBJECT_ID":"2025-071M","EPOCH":"2025-09-28T02:40:26.753664","MEAN_MOTION":15.30190257,"ECCENTRICITY":9.853e-5,"INCLINATION":53.1578,"RA_OF_ASC_NODE":175.4229,"ARG_OF_PERICENTER":124.3881,"MEAN_ANOMALY":235.7213,"EPHEMERIS_TYPE":0,"CLASSIFICATION_TYPE":"U","NORAD_CAT_ID":63504,"ELEMENT_SET_NO":999,"REV_AT_EPOCH":2781,"BSTAR":0.0010707695,"MEAN_MOTION_DOT":0.00031479,"MEAN_MOTION_DDOT":0},{"OBJECT_NAME":"STARLINK-33825","OBJECT_ID":"2025-071N","EPOCH":"2025-09-28T01:22:56.696160","MEAN_MOTION":15.30209562,"ECCENTRICITY":9.462e-5,"INCLINATION":53.1591,"RA_OF_ASC_NODE":175.0868,"ARG_OF_PERICENTER":118.961,"MEAN_ANOMALY":241.1486,"EPHEMERIS_TYPE":0,"CLASSIFICATION_TYPE":"U","NORAD_CAT_ID":63505,"ELEMENT_SET_NO":999,"REV_AT_EPOCH":2787,"BSTAR":0.0013755662,"MEAN_MOTION_DOT":0.00040616,"MEAN_MOTION_DDOT":0},{"OBJECT_NAME":"STARLINK-33792","OBJECT_ID":"2025-071P","EPOCH":"2025-09-28T01:29:01.489920","MEAN_MOTION":15.30208287,"ECCENTRICITY":9.398e-5,"INCLINATION":53.1594,"RA_OF_ASC_NODE":175.1116,"ARG_OF_PERICENTER":64.6511,"MEAN_ANOMALY":295.4587,"EPHEMERIS_TYPE":0,"CLASSIFICATION_TYPE":"U","NORAD_CAT_ID":63506,"ELEMENT_SET_NO":999,"REV_AT_EPOCH":2782,"BSTAR":0.0014015774,"MEAN_MOTION_DOT":0.00041394,"MEAN_MOTION_DDOT":0}]
