STARLINK-33716          
1 63486U 25070AC  25270.91109337  .00043425  00000+0  15772-2 0  9991
2 63486  43.0037  98.9015 0001810 277.2262  82.8384 15.27603013 28085
STARLINK-33754          
1 63487U 25070AD  25270.93165839  .00039233  00000+0  14276-2 0  9993
2 63487  43.0003  99.0398 0001474 291.4977  68.5717 15.27580707 28087
STARLINK-33828          
1 63493U 25071A   25270.95177476  .00036811  00000+0  12478-2 0  9994
2 63493  53.1587 177.9914 0001113 112.1428 247.9691 15.30226746 27800
STARLINK-33819          
1 63494U 25071B   25271.02025508  .00048959  00000+0  16538-2 0  9999
2 63494  53.1584 177.7003 0000969  44.6622 315.4457 15.30209097 27810
STARLINK-33845          
1 63495U 25071C   25271.00073409  .00067001  00000+0  22537-2 0  9996
2 63495  53.1589 175.4474 0001281  65.1751 294.9383 15.30204395 27840
STARLINK-33829          
1 63496U 25071D   25270.95124319  .00040172  00000+0  13601-2 0  9999
2 63496  53.1577 175.8494 0000563  63.8900 296.2158 15.30224630 27790
STARLINK-33815          
1 63497U 25071E   25270.90387175  .00035304  00000+0  11989-2 0  9994
2 63497  53.1572 176.2649 0000827  85.9732 274.1363 15.30186624 27843
STARLINK-33833          
1 63498U 25071F   25271.02605754  .00036747  00000+0  12468-2 0  9990
2 63498  53.1573 175.6010 0001005  82.0142 278.0973 15.30196483 27868
STARLINK-33534          
1 63499U 25071G   25271.02182111  .00048736  00000+0  16506-2 0  9996
2 63499  53.1573 175.5758 0001362  27.6303 332.4770 15.30127228 27846
STARLINK-33838          
1 63500U 25071H   25271.00495082  .00042977  00000+0  14544-2 0  9992
2 63500  53.1587 175.4707 0000516  57.5334 302.5717 15.30209401 27655
STARLINK-33837          
1 63501U 25071J   25270.97551493  .00062014  00000+0  20893-2 0  9995
2 63501  53.1570 176.0007 0000610 145.2065 214.8976 15.30187610 27793
STARLINK-33818          
1 63502U 25071K   25271.00178397  .00044798  00000+0  15151-2 0  9999
2 63502  53.1590 175.4512 0001064  21.1246 338.9798 15.30209289 27862
STARLINK-33583          
1 63503U 25071L   25271.06563061  .00040315  00000+0  13660-2 0  9996
2 63503  53.1603 177.9780 0001083  63.2939 296.8173 15.30197839 27843
STARLINK-33811          
1 63504U 25071M   25271.11142076  .00031479  00000+0  10708-2 0  9993
2 63504  53.1578 175.4229 0000985 124.3881 235.7213 15.30190257 27812
STARLINK-33825          
1 63505U 25071N   25271.05760065  .00040616  00000+0  13756-2 0  9990
2 63505  53.1591 175.0868 0000946 118.9610 241.1486 15.30209562 27878
STARLINK-33792          
1 63506U 25071P   25271.06182280  .00041394  00000+0  14016-2 0  9993
2 63506  53.1594 175.1116 0000939  64.6511 295.4587 15.30208287 27820
